49289,ONEWEB-0363,2021,109.03,148.0,+,87.92,Active,1,LEO,Russia,UK,Commercial,Communications,Soyuz,1 49289U 21090L   25007.03372502  .00000088  00000+0  18360-3 0  9996,2 49289  87.9243  19.1207 0001960  77.5991 282.5362 13.20772426161685,13.20772426,0.000196,LEO
49290,ONEWEB-0364,2021,109.03,148.0,+,87.92,Active,1,LEO,Russia,UK,Commercial,Communications,Soyuz,1 49290U 21090M   25007.07159034  .00000102  00000+0  21876-3 0  9998,2 49290  87.9245  19.1411 0001755  85.7312 274.4022 13.20771715162815,13.20771715,0.0001755,LEO
49291,ONEWEB-0365,2021,109.11,148.0,+,87.92,Active,1,LEO,Russia,UK,Commercial,Communications,Soyuz,1 49291U 21090N   25006.86652876 -.00000037  00000+0 -12548-3 0  9992,2 49291  87.9150  49.6001 0001739  99.6493 260.4836 13.19726045157007,13.19726045,0.0001739,LEO
49292,ONEWEB-0366,2021,109.55,148.0,+,87.9,Active,1,LEO,Russia,UK,Commercial,Communications,Soyuz,1 49292U 21090P   25007.46199000 -.00000031  00000+0 -11833-3 0  9995,2 49292  87.8990  34.2555 0001741  90.8022 269.3307 13.14504339159791,13.14504339,0.0001741,LEO
49293,ONEWEB-0367,2021,109.03,148.0,+,87.92,Active,1,LEO,Russia,UK,Commercial,Communications,Soyuz,1 49293U 21090Q   25007.48669110  .00000002  00000+0 -27057-4 0  9995,2 49293  87.9244  19.0254 0001675  91.8104 268.3222 13.20772673161737,13.20772673,0.0001675,LEO
49294,ONEWEB-0368,2021,109.03,148.0,+,87.92,Active,1,LEO,Russia,UK,Commercial,Communications,Soyuz,1 49294U 21090R   25006.92955351 -.00000013  00000+0 -65059-4 0  9996,2 49294  87.9247  19.1684 0001232  63.0786 297.0473 13.20771594161519,13.20771594,0.0001232,LEO
49295,ONEWEB-0369,2021,109.11,148.0,+,87.92,Active,1,LEO,Russia,UK,Commercial,Communications,Soyuz,1 49295U 21090S   25006.86179081 -.00000043  00000+0 -13924-3 0  9994,2 49295  87.9158  49.6181 0001744  98.2526 261.8804 13.19726026156992,13.19726026,0.0001744,LEO
49296,ONEWEB-0370,2021,109.03,148.0,+,87.92,Active,1,LEO,Russia,UK,Commercial,Communications,Soyuz,1 49296U 21090T   25007.49613811  .00000081  00000+0  16641-3 0  9998,2 49296  87.9244  19.0286 0002074  98.5859 261.5509 13.20768398161776,13.20768398,0.0002074,LEO
